#dP2019 11 11  0  0  0.00000000      97 __u+U IGS08 FIT  IAC
## 2079  86400.00000000   900.00000000 58798 0.0000000000000
+  113   C01C02C03C04C05C06C07C08C09C10C11C13C14C16C18C19C20
+        C21C22C23C24C25C26C27C28C29C30C32C33C34C35C37E01E02
+        E03E04E05E07E08E09E12E13E14E15E18E19E21E24E25E26E27
+        E30E31E33E36G01G02G03G04G05G06G07G08G09G10G11G12G13
+        G14G15G16G17G18G19G20G21G22G23G24G25G26G27G28G29G30
+        G31G32J01J02J03J07R01R02R03R05R07R08R09R11R12R13R14
+        R15R16R17R18R19R20R21R22R23R24R26  0  0  0  0  0  0
++        14 13 14 13 12  8  8  8  8  8  7  8  7  8 12  7  7
++         7  7  7  7  7  7  7  7  7  8  8  7  7  8  8  4  3
++         4  4  4  3  4  4  4  3  4  4  4  4  4  4  4  4  3
++         4  4  4  4  3  3  3  3  3  3  3  3  3  3  3  3  3
++         3  3  3  3  3  3  3  3  3  3  3  3  3  3  3  3  3
++         3  3  8  8  8 13  6  5  5  5  5  5  5  5  5  5  5
++         5  6  5  5  6  6  5  5  5  6  8  0  0  0  0  0  0
%c M  cc GPS ccc cccc cccc cccc cccc ccccc ccccc ccccc ccccc
%c cc cc ccc ccc cccc cccc cccc cccc ccccc ccccc ccccc ccccc
%f  1.2500000  1.025000000  0.00000000000  0.000000000000000
%f  0.0000000  0.000000000  0.00000000000  0.000000000000000
%i    0    0    0    0      0      0      0      0         0
%i    0    0    0    0      0      0      0      0         0
/* INFORMATION & ANALYSIS CENTER (IAC)            FINAL DATA
/* S/V CLOCKS ARE ALIGNED TO GNSS TIME                      
/* G:C1WC2W R:C1PC2P E:C1XC5X C:C2IC6I J:C1CC2S             
/* PCV:IGS14_2076 OL/AL:FES2004  NONE     YN ORB:CoN CLK:CoN
*  2019 11 11  6 30  0.00000000
PC01 -32321.440576  27070.326404   -989.626848    125.278521
PC02   4441.015529  41908.852902    541.727518    746.615819
PC03 -14762.664610  39519.188969   -340.985462    -88.055494
PC04 -39616.700839  14441.897006   -569.341397 999999.999999
PC05  21935.080353  36016.132026    815.264636    -69.346910
PC06  -9498.225427  23648.764844  33976.891742    324.028835
PC07 -25234.303236  28663.770259 -18190.705296   -255.430328
PC08 -12768.594884  37327.127323 -14334.028565    -31.324672
PC09   7308.065648  31609.039965  27343.562251    107.142365
PC10 -10049.925720  29833.157825 -28047.366284   -355.165759
PC11 -19260.250884  -7094.825470 -18877.507081      4.528207
PC13  -3516.943038  41865.966861    555.798205    100.061623
PC14 -27809.705655     32.898808  -2620.506421    112.946848
PC16  -5697.614138  24998.124331  33531.697330   -915.275154
PC18   7274.515710  41514.777721  -1013.599833      9.866454
PC19  26462.496651  -6221.618137  -6264.664762    241.927697
PC20  25036.034410   5841.033061  10830.356182   -277.169081
PC21  -8692.822246 -14808.939915 -21992.001870    190.699993
PC22  12487.476488 -14863.645625 -20041.344338   -347.293273
PC23 -12483.418571  24955.674874   -361.803987   -883.748259
PC24 -14408.873719  -7241.047267  22777.259804   -879.670433
PC25 -18742.672173  13390.278729  15742.400113   -410.160270
PC26  -2344.416778 -22289.948035  16645.171703    456.102089
PC27  11255.020716  24926.155166  -5592.826679    222.973163
PC28  -3839.641230  19374.949552 -19701.691645    214.120334
PC29  16519.261859  -3219.623584  22256.958979    144.488349
PC30  20285.463234  15284.341228  11579.473961    222.475392
PC32   8768.439652  14771.908894  21995.481057   -871.996037
PC33 -26470.933390   6321.478438   6205.358523   -556.484981
PC34 -20282.864908 -15050.868194 -11849.752087   -224.583983
PC35   3326.133651 -19449.478044  19727.325983   -540.574502
PC37   1391.149105  22614.562320 -16256.702884   -734.057647
PE01   6383.648304  15629.744991 -24304.607090   -729.399557
PE02  -6452.936599 -15591.723493  24327.235893     91.093297
PE03 -17676.522813 -18171.654849 -15299.888959   -231.741214
PE04  28175.546694   8796.777911  -2216.248360   -403.389221
PE05   3304.784105 -16983.668039 -24022.114307   -432.286933
PE07 -22231.768356   5869.894525  18645.833416   -297.575416
PE08 -28261.784994  -8498.845819   2376.654970   6264.814671
PE09  22086.628686  -5984.281282 -18769.825733   6256.601110
PE12  16745.719594  10260.723348  22152.971277   6105.659664
PE13 -13278.358239  12468.403927 -23324.084643    395.251988
PE14 -23442.085057 -15448.489023  -4903.302737   -790.053999
PE15 -16742.846711  -9879.018942 -22315.409876    888.227600
PE18  15203.256395  23049.557371  -8126.747436   -884.933062
PE19  15818.022165  18472.386981  16871.946150     -2.965151
PE21 -12565.004666  22719.739943 -14212.705100   -565.255146
PE24  24312.422526 -16373.449377  -4196.690737   5773.297350
PE25  12626.177191 -22727.019838  14162.037861   -495.413645
PE26  -2163.135296  27609.783221 -10424.145790   3890.540196
PE27 -24230.092436  16452.886570   4290.279358    348.165372
PE30 -21648.996538    393.782311  20178.069879   4394.244254
PE31  21629.523142   -572.197962 -20183.735256   -470.424038
PE33  10403.699611  26458.915220   8237.232492   -471.762855
PE36   2023.014014 -27546.339844  10658.575697    638.305267
PG01  13495.227401 -15454.866038  16482.341494   -193.371605
PG02 -13937.255586  -7957.352110 -20562.833543   -344.402686
PG03  21846.600411 -13613.397228  -6415.196495    -34.934607
PG04   -628.855504 -18135.592775 -19316.825639     -7.838994
PG05 -23763.395405    912.926571 -12162.318454     -3.318339
PG06  -7073.210618 -20945.537951 -14656.433687   -119.945556
PG07   5726.740952 -25515.170615  -2517.148208   -146.300525
PG08  20547.590013   1019.702100  16953.664345    -12.961836
PG09   3305.328792 -16135.079738 -20886.640766    -80.357640
PG10   3985.767688  14725.399333  21794.148069   -129.986902
PG11  11633.642111 -13114.368571  19519.485535   -451.571661
PG12 -24665.108588   9439.268582  -1992.312770    184.739960
PG13 -21531.194946 -10573.538538  11362.017801    -33.534196
PG14  19034.314656  18648.480454   1226.740101    -51.154557
PG15 -20611.664149   1645.690854  16580.738204   -273.489569
PG16  22857.979097   2705.201313 -13823.230062    -92.006302
PG17 -12435.686301 -20851.576199  11282.357553    160.834503
PG18  14944.547167  -7197.687991  20219.799976     99.360443
PG19 -17277.364561 -19802.747086   3473.534713   -241.375881
PG20  -6235.523562  18591.754350  17724.394846    527.434081
PG21  -1033.109348  26640.070397   1436.350930    -87.956893
PG22  24281.481478 -10488.630029   1933.597958   -770.835933
PG23  13565.312942  -8707.366552 -20819.801269   -156.227791
PG24 -14116.846963  13536.457780  17636.760914     -4.711024
PG25 -14921.869953  16637.168925 -14362.504975    -16.993982
PG26  15832.822372   8441.312554 -19661.754202     81.647600
PG27  22907.247516  11467.472070   7485.747166   -116.203863
PG28  -3473.128331 -14695.618901  22462.012314    755.581619
PG29  -5356.413184  14453.882988 -21656.175105     47.362101
PG30  -1585.919024 -25107.641571   8235.504866    -81.289049
PG31   8384.156044  19002.369973 -16304.264042     -2.409665
PG32  13875.267264  20123.636214  10609.458984    121.194196
PJ01 -30324.960291  24459.808747  21169.074286   -332.961842
PJ02 -32695.251854  26385.634356   7718.591273     -7.503848
PJ03 -22680.733873  18953.983203 -25477.150666     -6.128346
PJ07 -25374.151042  33665.036188     36.825963     -0.017124
PR01  12061.327256  10848.278819  19673.544620     52.495141
PR02  25076.051145   4281.044746   2283.971534    397.180452
PR03  20537.883413  -4425.991899 -14469.803448      4.634044
PR05 -14396.763234 -10438.615373 -18274.720833     39.190149
PR07 -20089.386571   4712.281926  14994.036192    -29.265879
PR08  -4301.669553  10471.987791  22900.926463     14.508876
PR09 -15661.656775   4932.266434  19563.375470    100.463232
PR11 -10041.414489  21283.082088  -9879.829038     20.364119
PR12   2398.409065  13623.274666 -21393.441798     78.189941
PR13  14224.222158  -2515.071453 -21033.734899    -30.777124
PR14  17491.799793 -16640.556660  -8196.858801     44.944489
PR15  10659.898612 -21285.774427   9191.905855    104.694917
PR16  -2929.412476 -13555.096713  21420.505908      0.648703
PR17   8631.382225  -6673.996791  23070.900227    275.133347
PR18  -1073.349073 -20453.260683  15189.665663     14.096771
PR19  -9553.124306 -23648.911171   -686.503788    -63.354530
PR20 -13334.353622 -12023.342491 -18093.157044   -395.844661
PR21  -8215.231532   7346.882486 -22998.414882    -84.506031
PR22   2882.748613  22004.941382 -12671.525000   -184.318312
PR23  12089.172986  21422.573455   6733.697486    266.062380
PR24  13407.588188   9768.973002  19357.257140   -186.632699
PR26 -13696.427024 -14960.169811 -15476.700127      8.190264
EOF
